OSCAR 7 (AO-7)          
1 07530U 74089B   19093.82569630 -.00000044  00000-0  33619-5 0  9990
2 07530 101.7357  62.2905 0012383 132.2182 342.6631 12.53637462 31010
UOSAT 2 (UO-11)         
1 14781U 84021B   19094.06782421  .00000068  00000-0  14462-4 0  9994
2 14781  97.6186 122.3322 0007932 198.3316 161.7614 14.83073325887552
LUSAT (LO-19)           
1 20442U 90005G   19094.39535133 -.00000017  00000-0  10166-4 0  9998
2 20442  98.6423  36.5494 0012124  16.8867 343.2718 14.32921043525596
ITAMSAT (IO-26)         
1 22826U 93061D   19093.95506061 -.00000007  00000-0  15164-4 0  9992
2 22826  98.8929  80.8832 0008441 202.2492 157.8324 14.30387895331324
RADIO ROSTO (RS-15)     
1 23439U 94085A   19093.86312083 -.00000071  00000-0 -80233-3 0  9999
2 23439  64.8153 238.7476 0147961 127.8186 233.6237 11.27568197999345
JAS-2 (FO-29)           
1 24278U 96046B   19093.90607373 -.00000040  00000-0 -77323-5 0  9998
2 24278  98.5257 257.6393 0351324  76.6362 287.3689 13.53090146117301
TECHSAT 1B (GO-32)      
1 25397U 98043D   19094.34853531 -.00000024  00000-0  87611-5 0  9990
2 25397  98.6827  35.4323 0000266 201.4371 158.6797 14.23662698 77150
ISS (ZARYA)             
1 25544U 98067A   19094.85381704  .00002507  00000-0  47702-4 0  9997
2 25544  51.6442   5.7654 0002366 147.7758 321.0812 15.52487373163863
PCSAT (NO-44)           
1 26931U 01043C   19093.92315435 -.00000037  00000-0  17450-4 0  9995
2 26931  67.0515 199.1980 0005663 277.0122  83.0335 14.30536844914065
SAUDISAT 1C (SO-50)     
1 27607U 02058C   19093.90953481 -.00000023  00000-0  17619-4 0  9992
2 27607  64.5538 281.2880 0082396 270.9464  88.2199 14.75531618875855
CUTE-1 (CO-55)          
1 27844U 03031E   19093.95141134  .00000042  00000-0  38546-4 0  9998
2 27844  98.6865 103.2892 0008735 247.6498 112.3754 14.22167877817483
CUBESAT XI-IV (CO-57)   
1 27848U 03031J   19093.99239643  .00000030  00000-0  33318-4 0  9998
2 27848  98.6944 103.8123 0008555 260.2804  99.7407 14.21764400817386
MOZHAYETS 4 (RS-22)     
1 27939U 03042A   19094.66759301  .00000119  00000-0  29883-4 0  9994
2 27939  98.0266 231.9987 0011710 309.0512  50.9644 14.66765568829542
CUBESAT XI-V            
1 28895U 05043F   19094.10400460  .00000112  00000-0  30424-4 0  9993
2 28895  97.9462 239.4784 0015856 226.8880 133.0997 14.63644078716422
CUTE-1.7+APD II (CO-65) 
1 32785U 08021C   19093.84702120  .00000192  00000-0  26373-4 0  9999
2 32785  97.5495  97.1423 0013889 148.7283 211.4763 14.88271463592334
DELFI-C3 (DO-64)        
1 32789U 08021G   19094.11568925  .00000764  00000-0  55345-4 0  9993
2 32789  97.4732 146.0346 0012918  31.6345 328.5657 15.06760475595589
SEEDS II (CO-66)        
1 32791U 08021J   19093.79132581  .00000249  00000-0  30628-4 0  9999
2 32791  97.5299 102.9761 0014689 126.9434 233.3133 14.90764648592720
YUBILEINY (RS-30)       
1 32953U 08025A   19094.71393614  .00000020  00000-0  75656-4 0  9999
2 32953  82.5073 191.3826 0017760 293.3980  66.5232 12.43088551492998
KKS-1 (KISEKI)          
1 33499U 09002H   19093.92272346  .00000064  00000-0  17472-4 0  9991
2 33499  98.3546 290.1908 0010514  88.2920 271.9493 14.75419048547626
SWISSCUBE               
1 35932U 09051B   19093.94869209  .00000108  00000-0  35483-4 0  9992
2 35932  98.5788 257.7383 0008327  45.4880 314.6996 14.56258775505719
BEESAT-1                
1 35933U 09051C   19093.95638159  .00000094  00000-0  32232-4 0  9995
2 35933  98.5821 259.4666 0006771  58.7853 301.4006 14.56351271505866
ITUPSAT1                
1 35935U 09051E   19094.10797173  .00000074  00000-0  28190-4 0  9993
2 35935  98.5932 259.8653 0009000  53.3682 306.8341 14.55514715505640
XIWANG-1 (HOPE-1)       
1 36122U 09072B   19093.73104395 -.00000025  00000-0  44616-4 0  9999
2 36122 100.0753  99.6838 0007965 156.1632 203.9854 13.16349049446887
JUGNU                   
1 37839U 11058B   19094.23605326  .00000304  00000-0  19958-4 0  9998
2 37839  19.9616  72.3433 0018875 214.6487 261.8667 14.12645998386571
SRMSAT                  
1 37841U 11058D   19094.23865012  .00000303  00000-0  21533-4 0  9992
2 37841  19.9712 127.5427 0012058  87.8419 343.1302 14.10627931386024
M-CUBED & EXP-1 PRIME   
1 37855U 11061F   19093.82674643  .00000801  00000-0  48431-4 0  9992
2 37855 101.7255 310.4457 0174079 301.6896  56.7443 15.05231202405364
STRAND-1                
1 39090U 13009E   19093.92804037  .00000039  00000-0  28890-4 0  9992
2 39090  98.4963 301.1235 0009721 147.8924 212.2855 14.35076547319506
SOMP                    
1 39134U 13015E   19093.89706252  .00001046  00000-0  57584-4 0  9995
2 39134  64.8621 265.9590 0023862 316.0373  43.8855 15.19944034328690
BEESAT-3                
1 39135U 13015F   19093.81726969  .00000709  00000-0  45215-4 0  9998
2 39135  64.8662 283.4714 0010725 308.9612  51.0558 15.17289567328736
BEESAT-2                
1 39136U 13015G   19093.89213655  .00000648  00000-0  42823-4 0  9994
2 39136  64.8680 286.8195 0011984 303.1826  56.8150 15.16732837328675
ZACUBE-1 (TSHEPISOSAT)  
1 39417U 13066B   19093.97114157  .00000174  00000-0  28349-4 0  9999
2 39417  97.5673 111.7101 0057422 282.5728  76.9067 14.81077089289839
GOMX-1                  
1 39430U 13066Q   19094.67575359  .00000155  00000-0  36687-4 0  9990
2 39430  97.7381  56.2088 0152043 130.3321 231.1270 14.59214256285665
CUBEBUG-2 (LO-74)       
1 39440U 13066AA  19093.95092450  .00000201  00000-0  35120-4 0  9990
2 39440  97.6019  96.8630 0079567 332.0558  27.6390 14.75815925287603
FUNCUBE-1 (AO-73)       
1 39444U 13066AE  19094.01330444  .00000221  00000-0  33694-4 0  9996
2 39444  97.5660 113.6193 0056501 276.4702  83.0081 14.81887729288720
UWE-3                   
1 39446U 13066AG  19093.94937341  .00000183  00000-0  31109-4 0  9994
2 39446  97.5833 103.7858 0068763 308.0143  51.4873 14.78350528287484
SPROUT                  
1 39770U 14029E   19094.75154589  .00000751  00000-0  89452-4 0  9994
2 39770  97.8792 198.5685 0008454 342.1516  17.9415 14.87238371263692
UNISAT-6                
1 40012U 14033C   19093.91524230  .00000163  00000-0  31749-4 0  9994
2 40012  97.7692 323.7405 0058032 343.7609  16.1739 14.73944471257525
DUCHIFAT-1              
1 40021U 14033M   19093.89022962  .00000308  00000-0  37396-4 0  9991
2 40021  97.9229  18.2437 0011759 304.6318  55.3790 14.90561941260254
QB50P1                  
1 40025U 14033R   19093.89402583  .00000237  00000-0  31319-4 0  9996
2 40025  97.9067  13.7011 0011414 314.2312  45.7967 14.88894070260040
NUDT-PHONESAT           
1 40900U 15049B   19094.78976491  .00001930  00000-0  86253-4 0  9997
2 40900  97.4398 104.8686 0015007  87.8227 359.7012 15.22450638196262
ZDPS 2A                 
1 40901U 15049C   19094.71313913  .00000608  00000-0  33537-4 0  9993
2 40901  97.4612 101.6244 0015436 102.1010   1.4748 15.17580010195868
ZDPS 2B                 
1 40902U 15049D   19094.72508573  .00001074  00000-0  57025-4 0  9999
2 40902  97.4547  99.2362 0015529  99.4658 347.3324 15.17356941195842
XW-2A                   
1 40903U 15049E   19094.68724703  .00001901  00000-0  47180-4 0  9990
2 40903  97.3485 136.9995 0015590  61.6795  54.7932 15.41539373198694
KAITUO 1A               
1 40904U 15049F   19094.65460260  .00000395  00000-0  24407-4 0  9996
2 40904  97.4668  97.9540 0016441 105.4372   0.1117 15.15286599195636
2015-049G               
1 40905U 15049G   19094.67912416  .00000399  00000-0  25377-4 0  9995
2 40905  97.4695  95.6243 0017441 100.3506 349.4278 15.14219542195524
XW-2C                   
1 40906U 15049H   19094.73270028  .00000780  00000-0  44467-4 0  9994
2 40906  97.4675  98.0595 0016828  97.9484 347.9976 15.15566798195644
XW-2D                   
1 40907U 15049J   19094.71957042  .00000717  00000-0  40956-4 0  9990
2 40907  97.4654  97.7261 0016296  95.5252 351.3802 15.15745687195658
LILACSAT-2              
1 40908U 15049K   19094.70401878 -.00000021  00000-0  24581-5 0  9997
2 40908  97.4782  96.6752 0017821 100.0706  12.8829 15.13733284195460
XW-2F                   
1 40910U 15049M   19094.68558791  .00000914  00000-0  49360-4 0  9995
2 40910  97.4628  99.5347 0016898  90.4647 359.7098 15.17120874195643
XW-2B                   
1 40911U 15049N   19094.74883880  .00000623  00000-0  36151-4 0  9994
2 40911  97.4684  98.3834 0016077  95.7589 351.0744 15.15677766195554
KAITUO 1B               
1 40912U 15049P   19094.70412630  .00000984  00000-0  49569-4 0  9999
2 40912  97.4522 103.0343 0017039  76.5105  45.2966 15.19410067195927
TIANWANG 1C (TW-1C)     
1 40926U 15051B   19094.74299154  .00010875  00000-0  16943-3 0  9994
2 40926  97.1464 141.0591 0006275 292.7102 162.1855 15.54026187198519
TIANWANG 1A (TW-1A)     
1 40928U 15051D   19094.78979484  .00003191  00000-0  81122-4 0  9996
2 40928  97.1542 127.7408 0010995 356.4628  61.6131 15.40285894197641
LAPAN-A2                
1 40931U 15052B   19093.83561249  .00000556  00000-0 -11601-4 0  9990
2 40931   5.9998 237.5411 0012199 162.9413 197.1859 14.76600637190033
E-ST@R-II               
1 41459U 16025D   19094.75786384  .00001502  00000-0  81569-4 0  9999
2 41459  98.1040 177.5143 0167400 249.7493 108.5649 15.05195765161275
AAUSAT 4                
1 41460U 16025E   19094.55900286  .00002196  00000-0  11491-3 0  9994
2 41460  98.1002 178.3672 0157806 243.8375 114.6548 15.06959707161354
NUSAT-1 (FRESCO)        
1 41557U 16033B   19094.75574041  .00001427  00000-0  56542-4 0  9991
2 41557  97.4182 182.7038 0013487 196.1329 163.9483 15.26997218158657
BEESAT-4                
1 41619U 16040W   19093.82707286  .00001297  00000-0  58290-4 0  9991
2 41619  97.3757 157.4409 0009774 293.4290  66.5919 15.22896298142316
CAS-2T & KS-1Q          
1 41847U 16066G   19094.11371872  .00000104  00000-0  25251-4 0  9990
2 41847  98.7157 133.5977 0367116  99.7595 264.5247 14.37968407126138
NAYIF-1 (EO-88)         
1 42017U 17008BX  19094.78439249  .00001582  00000-0  65715-4 0  9993
2 42017  97.4100 162.6331 0007911  78.1678 282.0447 15.25284088118509
MAX VALIER SAT          
1 42778U 17036P   19093.91864536  .00000952  00000-0  44802-4 0  9997
2 42778  97.3632 153.2244 0013971 126.5682 233.6842 15.21850995 98710
RADFXSAT (FOX-1B)       
1 43017U 17073E   19093.80018623  .00000915  00000-0  76258-4 0  9990
2 43017  97.7227  18.1296 0259728  45.7642 316.4576 14.78442675 74044
FOX-1D (AO-92)          
1 43137U 18004AC  19094.15671508  .00001001  00000-0  45219-4 0  9994
2 43137  97.4945 162.1068 0010128 152.8316 207.3452 15.23289067 67997
ES'HAIL 2               
1 43700U 18090A   19094.38938560  .00000137  00000-0  00000+0 0  9997
2 43700   0.0114 245.3161 0001917 176.2815 296.7873  1.00271040  1538
FOX-1CLIFF (AO-95)      
1 43770U 18099N   19094.19121436  .00000124  00000-0  16691-4 0  9992
2 43770  97.7508 167.0050 0013764 221.0875 138.9310 14.94706817 18140
ITASAT 1                
1 43786U 18099AE  19094.15999859  .00000379  00000-0  39807-4 0  9993
2 43786  97.7525 167.0698 0014377 215.2325 144.7946 14.95089116 18147
JY1SAT (JO-97)          
1 43803U 18099AX  19093.88338099  .00000728  00000-0  71407-4 0  9995
2 43803  97.7483 166.7460 0014365 216.8474 143.1761 14.95206794 18097
